0 OPTUS B3
1 23227U 94055A   13281.78816241 -.00000086  00000-0  10000-3 0  3028
2 23227 005.0329 061.7078 0004632 134.4708 269.1447 01.00271637 69980
0 OPTUS B3
1 23227U 94055A   13282.66495326  .00000000  00000-0  10000-3 0  3040
2 23227 005.0339 061.7027 0004986 144.1311 215.9937 01.00267650 69999
0 OPTUS B3
1 23227U 94055A   13283.54249900 -.00000092  00000-0  10000-3 0  3034
2 23227 005.0365 061.6902 0004657 133.8994 183.0212 01.00271639 69999
0 OPTUS B3
1 23227U 94055A   13285.61150257 -.00000096  00000-0  10000-3 0  3056
2 23227 005.0409 061.6712 0004757 133.9853 209.8303 01.00271612 70017
0 OPTUS B3
1 23227U 94055A   13287.57624727 -.00000098  00000-0  10000-3 0  3064
2 23227 005.0451 061.6543 0004762 134.5695 198.5053 01.00271712 70032
0 OPTUS B3
1 23227U 94055A   13288.59387021 -.00000098  00000-0  10000-3 0  3071
2 23227 005.0471 061.6449 0004789 134.7165 205.7141 01.00271756 70040
0 OPTUS B3
1 23227U 94055A   13289.60324910 -.00000097  00000-0  10000-3 0  3082
2 23227 005.0491 061.6351 0004745 135.6106 209.1992 01.00271787 70058
0 OPTUS B3
1 23227U 94055A   13289.64566341  .00000000  00000-0  10000-3 0  3108
2 23227 005.0479 061.6365 0005437 151.4557 208.6576 01.00268735 70066
0 OPTUS B3
1 23227U 94055A   13291.72942767 -.00000093  00000-0  10000-3 0  3091
2 23227 005.0528 061.6142 0004880 139.6370 252.7135 01.00272067 70082
0 OPTUS B3
1 23227U 94055A   13292.73918633 -.00000092  00000-0  10000-3 0  3109
2 23227 005.0549 061.6045 0004882 140.7693 256.0976 01.00272055 70098
0 OPTUS B3
1 23227U 94055A   13295.61608638 -.00000088  00000-0  10000-3 0  3116
2 23227 005.0611 061.5759 0004978 141.6196 213.7968 01.00272125 70115
